{"type":"FeatureCollection","features":[{"type":"Feature","id":"gshhs-chigasaki-coastline-0-0","properties":{"category":"coastline","region":"chigasaki","source":"GSHHS","generalized":true},"geometry":{"type":"LineString","coordinates":[[139.46,35.316166026667496],[139.36,35.314847067380576]]}}],"metadata":{"source":"GSHHG/GSHHS intermediate shoreline (Basemap bundled dataset)","license":"GNU LGPL; see LICENSE_AND_SOURCES.md","is_openstreetmap":false,"precision":"regional overview only; unsuitable for street geometry, local sea walls or navigation","crs":"EPSG:4326","navigation_use":false,"area":"chigasaki","name_ja":"茅ヶ崎","bbox_wsen":[139.36,35.28,139.46,35.41]}}