{"type":"FeatureCollection","features":[{"type":"Feature","id":"gshhs-fujisawa-coastline-0-0","properties":{"category":"coastline","region":"fujisawa","source":"GSHHS","generalized":true},"geometry":{"type":"LineString","coordinates":[[139.54,35.305296663804484],[139.4750213623047,35.29705810546875],[139.46664428710938,35.316253662109375],[139.39,35.31524275516665]]}}],"metadata":{"source":"GSHHG/GSHHS intermediate shoreline (Basemap bundled dataset)","license":"GNU LGPL; see LICENSE_AND_SOURCES.md","is_openstreetmap":false,"precision":"regional overview only; unsuitable for street geometry, local sea walls or navigation","crs":"EPSG:4326","navigation_use":false,"area":"fujisawa","name_ja":"藤沢","bbox_wsen":[139.39,35.27,139.54,35.43]}}