{"type":"FeatureCollection","features":[{"type":"Feature","id":"gshhs-hiratsuka-coastline-0-0","properties":{"category":"coastline","region":"hiratsuka","source":"GSHHS","generalized":true},"geometry":{"type":"LineString","coordinates":[[139.4,35.31537465109535],[139.3399658203125,35.31458282470703],[139.27,35.297520436860836]]}}],"metadata":{"source":"GSHHG/GSHHS intermediate shoreline (Basemap bundled dataset)","license":"GNU LGPL; see LICENSE_AND_SOURCES.md","is_openstreetmap":false,"precision":"regional overview only; unsuitable for street geometry, local sea walls or navigation","crs":"EPSG:4326","navigation_use":false,"area":"hiratsuka","name_ja":"平塚","bbox_wsen":[139.27,35.27,139.4,35.43]}}