{"type":"FeatureCollection","features":[{"type":"Feature","id":"gshhs-kamakura-coastline-0-0","properties":{"category":"coastline","region":"kamakura","source":"GSHHS","generalized":true},"geometry":{"type":"LineString","coordinates":[[139.64,35.39988802605274],[139.62371826171875,35.39582824707031],[139.64,35.38872010532925]]}},{"type":"Feature","id":"gshhs-kamakura-coastline-0-1","properties":{"category":"coastline","region":"kamakura","source":"GSHHS","generalized":true},"geometry":{"type":"LineString","coordinates":[[139.64,35.362040508628134],[139.62374877929688,35.32752990722656],[139.64,35.326213511335474]]}},{"type":"Feature","id":"gshhs-kamakura-coastline-0-2","properties":{"category":"coastline","region":"kamakura","source":"GSHHS","generalized":true},"geometry":{"type":"LineString","coordinates":[[139.64,35.30194989074502],[139.63702392578125,35.29750061035156],[139.64,35.29931946999685]]}},{"type":"Feature","id":"gshhs-kamakura-coastline-1-0","properties":{"category":"coastline","region":"kamakura","source":"GSHHS","generalized":true},"geometry":{"type":"LineString","coordinates":[[139.58047177262262,35.25],[139.57708740234375,35.25250244140625],[139.57289123535156,35.290000915527344],[139.5475311279297,35.306251525878906],[139.4750213623047,35.29705810546875],[139.47,35.30856425078623]]}}],"metadata":{"source":"GSHHG/GSHHS intermediate shoreline (Basemap bundled dataset)","license":"GNU LGPL; see LICENSE_AND_SOURCES.md","is_openstreetmap":false,"precision":"regional overview only; unsuitable for street geometry, local sea walls or navigation","crs":"EPSG:4326","navigation_use":false,"area":"kamakura","name_ja":"鎌倉","bbox_wsen":[139.47,35.25,139.64,35.4]}}