{"type":"FeatureCollection","features":[{"type":"Feature","id":"gshhs-oiso-land-0-0","properties":{"category":"land","region":"oiso","source":"GSHHS","generalized":true},"geometry":{"type":"Polygon","coordinates":[[[139.3399658203125,35.31458282470703],[139.24417114257812,35.291221618652344],[139.22,35.27914359141527],[139.22,35.37],[139.34,35.37],[139.34,35.31458327552319],[139.3399658203125,35.31458282470703]]]}}],"metadata":{"source":"GSHHG/GSHHS intermediate shoreline (Basemap bundled dataset)","license":"GNU LGPL; see LICENSE_AND_SOURCES.md","is_openstreetmap":false,"precision":"regional overview only; unsuitable for street geometry, local sea walls or navigation","crs":"EPSG:4326","navigation_use":false,"area":"oiso","name_ja":"大磯","bbox_wsen":[139.22,35.25,139.34,35.37]}}