{"type":"FeatureCollection","features":[{"type":"Feature","id":"gshhs-yokohama-coastline-0-0","properties":{"category":"coastline","region":"yokohama","source":"GSHHS","generalized":true},"geometry":{"type":"LineString","coordinates":[[139.81,35.30277801405956],[139.76788330078125,35.31666564941406],[139.81,35.32043233360548]]}},{"type":"Feature","id":"gshhs-yokohama-coastline-1-0","properties":{"category":"coastline","region":"yokohama","source":"GSHHS","generalized":true},"geometry":{"type":"LineString","coordinates":[[139.75941462147384,35.62],[139.7471466064453,35.59077453613281],[139.75660705566406,35.55958557128906],[139.7762451171875,35.573272705078125],[139.7870635986328,35.53663635253906],[139.75291442871094,35.54161071777344],[139.7870635986328,35.521636962890625],[139.77586364746094,35.512939453125],[139.7541046142578,35.531280517578125],[139.7491912841797,35.506195068359375],[139.7324676513672,35.50958251953125],[139.68666076660156,35.479522705078125],[139.67999267578125,35.487884521484375],[139.67086791992188,35.46705627441406],[139.65086364746094,35.48041534423828],[139.65374755859375,35.46497344970703],[139.6304473876953,35.45830535888672],[139.68621826171875,35.43916320800781],[139.67166137695312,35.40289306640625],[139.63082885742188,35.408721923828125],[139.64703369140625,35.401641845703125],[139.62371826171875,35.39582824707031],[139.65042114257812,35.38417053222656],[139.62374877929688,35.32752990722656],[139.6553955078125,35.32496643066406],[139.63702392578125,35.29750061035156],[139.65411376953125,35.307945251464844],[139.65748456676587,35.29]]}},{"type":"Feature","id":"gshhs-yokohama-coastline-1-1","properties":{"category":"coastline","region":"yokohama","source":"GSHHS","generalized":true},"geometry":{"type":"LineString","coordinates":[[139.66142336398195,35.29],[139.6699676513672,35.30291748046875],[139.67659552616593,35.29]]}},{"type":"Feature","id":"gshhs-yokohama-coastline-2-0","properties":{"category":"coastline","region":"yokohama","source":"GSHHS","generalized":true},"geometry":{"type":"LineString","coordinates":[[139.57289133780122,35.29],[139.57289123535156,35.290000915527344],[139.5475311279297,35.306251525878906],[139.4750213623047,35.29705810546875],[139.46664428710938,35.316253662109375],[139.45,35.31603413073881]]}},{"type":"Feature","id":"gshhs-yokohama-coastline-3-0","properties":{"category":"coastline","region":"yokohama","source":"GSHHS","generalized":true},"geometry":{"type":"LineString","coordinates":[[139.75125122070312,35.595001220703125],[139.75125122070312,35.59913635253906],[139.7624969482422,35.615386962890625],[139.7796173095703,35.58997344970703],[139.7591094970703,35.57539367675781],[139.75125122070312,35.595001220703125]]}},{"type":"Feature","id":"gshhs-yokohama-coastline-4-0","properties":{"category":"coastline","region":"yokohama","source":"GSHHS","generalized":true},"geometry":{"type":"LineString","coordinates":[[139.70289611816406,35.47914123535156],[139.70333862304688,35.47955322265625],[139.7421417236328,35.489112854003906],[139.70289611816406,35.47914123535156]]}},{"type":"Feature","id":"gshhs-yokohama-coastline-5-0","properties":{"category":"coastline","region":"yokohama","source":"GSHHS","generalized":true},"geometry":{"type":"LineString","coordinates":[[139.77455139160156,35.619140625],[139.77499389648438,35.61958312988281],[139.7866973876953,35.60285949707031],[139.77455139160156,35.619140625]]}},{"type":"Feature","id":"gshhs-yokohama-coastline-6-0","properties":{"category":"coastline","region":"yokohama","source":"GSHHS","generalized":true},"geometry":{"type":"LineString","coordinates":[[139.80038452148438,35.59832763671875],[139.80035400390625,35.600830078125],[139.81,35.60513740971403]]}},{"type":"Feature","id":"gshhs-yokohama-coastline-7-0","properties":{"category":"coastline","region":"yokohama","source":"GSHHS","generalized":true},"geometry":{"type":"LineString","coordinates":[[139.81,35.60361978295468],[139.80038452148438,35.59832763671875]]}},{"type":"Feature","id":"gshhs-yokohama-coastline-8-0","properties":{"category":"coastline","region":"yokohama","source":"GSHHS","generalized":true},"geometry":{"type":"LineString","coordinates":[[139.7703857421875,35.57666778564453],[139.77035522460938,35.57746887207031],[139.7862548828125,35.584136962890625],[139.7703857421875,35.57666778564453]]}},{"type":"Feature","id":"gshhs-yokohama-coastline-9-0","properties":{"category":"coastline","region":"yokohama","source":"GSHHS","generalized":true},"geometry":{"type":"LineString","coordinates":[[139.78963703551474,35.62],[139.79417419433594,35.61377716064453],[139.78934780232058,35.62]]}}],"metadata":{"source":"GSHHG/GSHHS intermediate shoreline (Basemap bundled dataset)","license":"GNU LGPL; see LICENSE_AND_SOURCES.md","is_openstreetmap":false,"precision":"regional overview only; unsuitable for street geometry, local sea walls or navigation","crs":"EPSG:4326","navigation_use":false,"area":"yokohama","name_ja":"横浜","bbox_wsen":[139.45,35.29,139.81,35.62]}}