{"type":"FeatureCollection","features":[{"type":"Feature","id":"gshhs-coast-0-0","properties":{"category":"coastline","region":"whole","source":"GSHHS","generalized":true},"geometry":{"type":"LineString","coordinates":[[139.82,35.299480596262796],[139.76788330078125,35.31666564941406],[139.82,35.32132667819119]]}},{"type":"Feature","id":"gshhs-coast-1-0","properties":{"category":"coastline","region":"whole","source":"GSHHS","generalized":true},"geometry":{"type":"LineString","coordinates":[[139.76361233586573,35.63],[139.7471466064453,35.59077453613281],[139.75660705566406,35.55958557128906],[139.7762451171875,35.573272705078125],[139.7870635986328,35.53663635253906],[139.75291442871094,35.54161071777344],[139.7870635986328,35.521636962890625],[139.77586364746094,35.512939453125],[139.7541046142578,35.531280517578125],[139.7491912841797,35.506195068359375],[139.7324676513672,35.50958251953125],[139.68666076660156,35.479522705078125],[139.67999267578125,35.487884521484375],[139.67086791992188,35.46705627441406],[139.65086364746094,35.48041534423828],[139.65374755859375,35.46497344970703],[139.6304473876953,35.45830535888672],[139.68621826171875,35.43916320800781],[139.67166137695312,35.40289306640625],[139.63082885742188,35.408721923828125],[139.64703369140625,35.401641845703125],[139.62371826171875,35.39582824707031],[139.65042114257812,35.38417053222656],[139.62374877929688,35.32752990722656],[139.6553955078125,35.32496643066406],[139.63702392578125,35.29750061035156],[139.65411376953125,35.307945251464844],[139.65835571289062,35.285362243652344],[139.6699676513672,35.30291748046875],[139.6883544921875,35.26708221435547],[139.74789428710938,35.255027770996094],[139.72378540039062,35.2391357421875],[139.72680923254458,35.23]]}},{"type":"Feature","id":"gshhs-coast-2-0","properties":{"category":"coastline","region":"whole","source":"GSHHS","generalized":true},"geometry":{"type":"LineString","coordinates":[[139.60752032025616,35.23],[139.57708740234375,35.25250244140625],[139.57289123535156,35.290000915527344],[139.5475311279297,35.306251525878906],[139.4750213623047,35.29705810546875],[139.46664428710938,35.316253662109375],[139.3399658203125,35.31458282470703],[139.24417114257812,35.291221618652344],[139.22,35.27914359141527]]}},{"type":"Feature","id":"gshhs-coast-3-0","properties":{"category":"coastline","region":"whole","source":"GSHHS","generalized":true},"geometry":{"type":"LineString","coordinates":[[139.75125122070312,35.595001220703125],[139.75125122070312,35.59913635253906],[139.7624969482422,35.615386962890625],[139.7796173095703,35.58997344970703],[139.7591094970703,35.57539367675781],[139.75125122070312,35.595001220703125]]}},{"type":"Feature","id":"gshhs-coast-4-0","properties":{"category":"coastline","region":"whole","source":"GSHHS","generalized":true},"geometry":{"type":"LineString","coordinates":[[139.80529542206645,35.63],[139.79913330078125,35.62291717529297],[139.78946380801835,35.63]]}},{"type":"Feature","id":"gshhs-coast-5-0","properties":{"category":"coastline","region":"whole","source":"GSHHS","generalized":true},"geometry":{"type":"LineString","coordinates":[[139.70289611816406,35.47914123535156],[139.70333862304688,35.47955322265625],[139.7421417236328,35.489112854003906],[139.70289611816406,35.47914123535156]]}},{"type":"Feature","id":"gshhs-coast-6-0","properties":{"category":"coastline","region":"whole","source":"GSHHS","generalized":true},"geometry":{"type":"LineString","coordinates":[[139.77455139160156,35.619140625],[139.77499389648438,35.61958312988281],[139.7866973876953,35.60285949707031],[139.77455139160156,35.619140625]]}},{"type":"Feature","id":"gshhs-coast-7-0","properties":{"category":"coastline","region":"whole","source":"GSHHS","generalized":true},"geometry":{"type":"LineString","coordinates":[[139.80038452148438,35.59832763671875],[139.80035400390625,35.600830078125],[139.82,35.609602818519065]]}},{"type":"Feature","id":"gshhs-coast-8-0","properties":{"category":"coastline","region":"whole","source":"GSHHS","generalized":true},"geometry":{"type":"LineString","coordinates":[[139.82,35.60912356129221],[139.80038452148438,35.59832763671875]]}},{"type":"Feature","id":"gshhs-coast-9-0","properties":{"category":"coastline","region":"whole","source":"GSHHS","generalized":true},"geometry":{"type":"LineString","coordinates":[[139.76878356933594,35.62330627441406],[139.768798828125,35.62664031982422],[139.78455351883593,35.63]]}},{"type":"Feature","id":"gshhs-coast-10-0","properties":{"category":"coastline","region":"whole","source":"GSHHS","generalized":true},"geometry":{"type":"LineString","coordinates":[[139.7845649041456,35.63],[139.76878356933594,35.62330627441406]]}},{"type":"Feature","id":"gshhs-coast-11-0","properties":{"category":"coastline","region":"whole","source":"GSHHS","generalized":true},"geometry":{"type":"LineString","coordinates":[[139.7703857421875,35.57666778564453],[139.77035522460938,35.57746887207031],[139.7862548828125,35.584136962890625],[139.7703857421875,35.57666778564453]]}},{"type":"Feature","id":"gshhs-coast-12-0","properties":{"category":"coastline","region":"whole","source":"GSHHS","generalized":true},"geometry":{"type":"LineString","coordinates":[[139.7854461669922,35.625030517578125],[139.78538513183594,35.625831604003906],[139.79417419433594,35.61377716064453],[139.7854461669922,35.625030517578125]]}}],"metadata":{"source":"GSHHG/GSHHS intermediate shoreline (Basemap bundled dataset)","license":"GNU LGPL; see LICENSE_AND_SOURCES.md","is_openstreetmap":false,"precision":"regional overview only; unsuitable for street geometry, local sea walls or navigation","crs":"EPSG:4326","navigation_use":false,"coverage":"yokohama and oiso-kamakura","bbox_wsen":[139.22,35.23,139.82,35.63]}}