{"type":"FeatureCollection","features":[{"type":"Feature","id":"yokohama","properties":{"slug":"yokohama","name_ja":"横浜","category":"data_capture_bbox","is_municipality_border":false,"warning":"Extraction bounding rectangle; NOT official municipal boundary"},"geometry":{"type":"Polygon","coordinates":[[[139.81,35.29],[139.81,35.62],[139.45,35.62],[139.45,35.29],[139.81,35.29]]]}},{"type":"Feature","id":"kamakura","properties":{"slug":"kamakura","name_ja":"鎌倉","category":"data_capture_bbox","is_municipality_border":false,"warning":"Extraction bounding rectangle; NOT official municipal boundary"},"geometry":{"type":"Polygon","coordinates":[[[139.64,35.25],[139.64,35.4],[139.47,35.4],[139.47,35.25],[139.64,35.25]]]}},{"type":"Feature","id":"fujisawa","properties":{"slug":"fujisawa","name_ja":"藤沢","category":"data_capture_bbox","is_municipality_border":false,"warning":"Extraction bounding rectangle; NOT official municipal boundary"},"geometry":{"type":"Polygon","coordinates":[[[139.54,35.27],[139.54,35.43],[139.39,35.43],[139.39,35.27],[139.54,35.27]]]}},{"type":"Feature","id":"chigasaki","properties":{"slug":"chigasaki","name_ja":"茅ヶ崎","category":"data_capture_bbox","is_municipality_border":false,"warning":"Extraction bounding rectangle; NOT official municipal boundary"},"geometry":{"type":"Polygon","coordinates":[[[139.46,35.28],[139.46,35.41],[139.36,35.41],[139.36,35.28],[139.46,35.28]]]}},{"type":"Feature","id":"hiratsuka","properties":{"slug":"hiratsuka","name_ja":"平塚","category":"data_capture_bbox","is_municipality_border":false,"warning":"Extraction bounding rectangle; NOT official municipal boundary"},"geometry":{"type":"Polygon","coordinates":[[[139.4,35.27],[139.4,35.43],[139.27,35.43],[139.27,35.27],[139.4,35.27]]]}},{"type":"Feature","id":"oiso","properties":{"slug":"oiso","name_ja":"大磯","category":"data_capture_bbox","is_municipality_border":false,"warning":"Extraction bounding rectangle; NOT official municipal boundary"},"geometry":{"type":"Polygon","coordinates":[[[139.34,35.25],[139.34,35.37],[139.22,35.37],[139.22,35.25],[139.34,35.25]]]}}],"metadata":{"source":"project working-area bounding boxes","municipal_boundary":false}}