{"type":"FeatureCollection","features":[{"type":"Feature","id":"gshhs-land-0","properties":{"category":"land","source":"GSHHS","accuracy":"regional overview"},"geometry":{"type":"Polygon","coordinates":[[[139.63,35.3973946],[139.6237183,35.3958282],[139.63,35.3930858],[139.63,35.3408048],[139.6237488,35.3275299],[139.63,35.3270235],[139.63,35.25],[139.5804718,35.25],[139.5770874,35.2525024],[139.5728912,35.2900009],[139.5475311,35.3062515],[139.4750214,35.2970581],[139.4666443,35.3162537],[139.3399658,35.3145828],[139.26,35.2950818],[139.26,35.4],[139.63,35.4],[139.63,35.3973946]]]}}],"metadata":{"source":"GSHHS/GSHHG intermediate coastline via bundled Basemap data","not_osm":true,"bbox_wsen":[139.26,35.25,139.63,35.4],"resolution":"intermediate","not_for_navigation":true}}